STARLINK-1055
1 14760C 19074AZ  21326.15138476  .00006505  00000-0  43584-3 0  3268
2 14760  53.0524  68.0623 0001413  83.3771 325.3188 15.06395585    13
